6 11
iridium-75 0
1 00001U 00000ABC 00001.00000000  .00000000  00000-0  00000+0 0    04
2 00001  86.4000   0.0000 0000001   0.0000   0.0000 14.80000000    05
iridium-75 1
1 00002U 00000ABC 00001.00000000  .00000000  00000-0  00000+0 0    05
2 00002  86.4000   0.0000 0000001   0.0000  32.7273 14.80000000    00
iridium-75 2
1 00003U 00000ABC 00001.00000000  .00000000  00000-0  00000+0 0    06
2 00003  86.4000   0.0000 0000001   0.0000  65.4545 14.80000000    06
iridium-75 3
1 00004U 00000ABC 00001.00000000  .00000000  00000-0  00000+0 0    07
2 00004  86.4000   0.0000 0000001   0.0000  98.1818 14.80000000    03
iridium-75 4
1 00005U 00000ABC 00001.00000000  .00000000  00000-0  00000+0 0    08
2 00005  86.4000   0.0000 0000001   0.0000 130.9091 14.80000000    02
iridium-75 5
1 00006U 00000ABC 00001.00000000  .00000000  00000-0  00000+0 0    09
2 00006  86.4000   0.0000 0000001   0.0000 163.6364 14.80000000    09
iridium-75 6
1 00007U 00000ABC 00001.00000000  .00000000  00000-0  00000+0 0    00
2 00007  86.4000   0.0000 0000001   0.0000 196.3636 14.80000000    05
iridium-75 7
1 00008U 00000ABC 00001.00000000  .00000000  00000-0  00000+0 0    01
2 00008  86.4000   0.0000 0000001   0.0000 229.0909 14.80000000    03
iridium-75 8
1 00009U 00000ABC 00001.00000000  .00000000  00000-0  00000+0 0    02
2 00009  86.4000   0.0000 0000001   0.0000 261.8182 14.80000000    01
iridium-75 9
1 00010U 00000ABC 00001.00000000  .00000000  00000-0  00000+0 0    04
2 00010  86.4000   0.0000 0000001   0.0000 294.5455 14.80000000    09
iridium-75 10
1 00011U 00000ABC 00001.00000000  .00000000  00000-0  00000+0 0    05
2 00011  86.4000   0.0000 0000001   0.0000 327.2727 14.80000000    06
iridium-75 11
1 00012U 00000ABC 00001.00000000  .00000000  00000-0  00000+0 0    06
2 00012  86.4000  60.0000 0000001   0.0000  16.3636 14.80000000    08
iridium-75 12
1 00013U 00000ABC 00001.00000000  .00000000  00000-0  00000+0 0    07
2 00013  86.4000  60.0000 0000001   0.0000  49.0909 14.80000000    05
iridium-75 13
1 00014U 00000ABC 00001.00000000  .00000000  00000-0  00000+0 0    08
2 00014  86.4000  60.0000 0000001   0.0000  81.8182 14.80000000    03
iridium-75 14
1 00015U 00000ABC 00001.00000000  .00000000  00000-0  00000+0 0    09
2 00015  86.4000  60.0000 0000001   0.0000 114.5455 14.80000000    01
iridium-75 15
1 00016U 00000ABC 00001.00000000  .00000000  00000-0  00000+0 0    00
2 00016  86.4000  60.0000 0000001   0.0000 147.2727 14.80000000    07
iridium-75 16
1 00017U 00000ABC 00001.00000000  .00000000  00000-0  00000+0 0    01
2 00017  86.4000  60.0000 0000001   0.0000 180.0000 14.80000000    07
iridium-75 17
1 00018U 00000ABC 00001.00000000  .00000000  00000-0  00000+0 0    02
2 00018  86.4000  60.0000 0000001   0.0000 212.7273 14.80000000    03
iridium-75 18
1 00019U 00000ABC 00001.00000000  .00000000  00000-0  00000+0 0    03
2 00019  86.4000  60.0000 0000001   0.0000 245.4545 14.80000000    09
iridium-75 19
1 00020U 00000ABC 00001.00000000  .00000000  00000-0  00000+0 0    05
2 00020  86.4000  60.0000 0000001   0.0000 278.1818 14.80000000    07
iridium-75 20
1 00021U 00000ABC 00001.00000000  .00000000  00000-0  00000+0 0    06
2 00021  86.4000  60.0000 0000001   0.0000 310.9091 14.80000000    06
iridium-75 21
1 00022U 00000ABC 00001.00000000  .00000000  00000-0  00000+0 0    07
2 00022  86.4000  60.0000 0000001   0.0000 343.6364 14.80000000    03
iridium-75 22
1 00023U 00000ABC 00001.00000000  .00000000  00000-0  00000+0 0    08
2 00023  86.4000 120.0000 0000001   0.0000   0.0000 14.80000000    02
iridium-75 23
1 00024U 00000ABC 00001.00000000  .00000000  00000-0  00000+0 0    09
2 00024  86.4000 120.0000 0000001   0.0000  32.7273 14.80000000    07
iridium-75 24
1 00025U 00000ABC 00001.00000000  .00000000  00000-0  00000+0 0    00
2 00025  86.4000 120.0000 0000001   0.0000  65.4545 14.80000000    03
iridium-75 25
1 00026U 00000ABC 00001.00000000  .00000000  00000-0  00000+0 0    01
2 00026  86.4000 120.0000 0000001   0.0000  98.1818 14.80000000    00
iridium-75 26
1 00027U 00000ABC 00001.00000000  .00000000  00000-0  00000+0 0    02
2 00027  86.4000 120.0000 0000001   0.0000 130.9091 14.80000000    09
iridium-75 27
1 00028U 00000ABC 00001.00000000  .00000000  00000-0  00000+0 0    03
2 00028  86.4000 120.0000 0000001   0.0000 163.6364 14.80000000    06
iridium-75 28
1 00029U 00000ABC 00001.00000000  .00000000  00000-0  00000+0 0    04
2 00029  86.4000 120.0000 0000001   0.0000 196.3636 14.80000000    02
iridium-75 29
1 00030U 00000ABC 00001.00000000  .00000000  00000-0  00000+0 0    06
2 00030  86.4000 120.0000 0000001   0.0000 229.0909 14.80000000    01
iridium-75 30
1 00031U 00000ABC 00001.00000000  .00000000  00000-0  00000+0 0    07
2 00031  86.4000 120.0000 0000001   0.0000 261.8182 14.80000000    09
iridium-75 31
1 00032U 00000ABC 00001.00000000  .00000000  00000-0  00000+0 0    08
2 00032  86.4000 120.0000 0000001   0.0000 294.5455 14.80000000    06
iridium-75 32
1 00033U 00000ABC 00001.00000000  .00000000  00000-0  00000+0 0    09
2 00033  86.4000 120.0000 0000001   0.0000 327.2727 14.80000000    03
iridium-75 33
1 00034U 00000ABC 00001.00000000  .00000000  00000-0  00000+0 0    00
2 00034  86.4000 180.0000 0000001   0.0000  16.3636 14.80000000    05
iridium-75 34
1 00035U 00000ABC 00001.00000000  .00000000  00000-0  00000+0 0    01
2 00035  86.4000 180.0000 0000001   0.0000  49.0909 14.80000000    02
iridium-75 35
1 00036U 00000ABC 00001.00000000  .00000000  00000-0  00000+0 0    02
2 00036  86.4000 180.0000 0000001   0.0000  81.8182 14.80000000    00
iridium-75 36
1 00037U 00000ABC 00001.00000000  .00000000  00000-0  00000+0 0    03
2 00037  86.4000 180.0000 0000001   0.0000 114.5455 14.80000000    08
iridium-75 37
1 00038U 00000ABC 00001.00000000  .00000000  00000-0  00000+0 0    04
2 00038  86.4000 180.0000 0000001   0.0000 147.2727 14.80000000    04
iridium-75 38
1 00039U 00000ABC 00001.00000000  .00000000  00000-0  00000+0 0    05
2 00039  86.4000 180.0000 0000001   0.0000 180.0000 14.80000000    04
iridium-75 39
1 00040U 00000ABC 00001.00000000  .00000000  00000-0  00000+0 0    07
2 00040  86.4000 180.0000 0000001   0.0000 212.7273 14.80000000    01
iridium-75 40
1 00041U 00000ABC 00001.00000000  .00000000  00000-0  00000+0 0    08
2 00041  86.4000 180.0000 0000001   0.0000 245.4545 14.80000000    07
iridium-75 41
1 00042U 00000ABC 00001.00000000  .00000000  00000-0  00000+0 0    09
2 00042  86.4000 180.0000 0000001   0.0000 278.1818 14.80000000    04
iridium-75 42
1 00043U 00000ABC 00001.00000000  .00000000  00000-0  00000+0 0    00
2 00043  86.4000 180.0000 0000001   0.0000 310.9091 14.80000000    03
iridium-75 43
1 00044U 00000ABC 00001.00000000  .00000000  00000-0  00000+0 0    01
2 00044  86.4000 180.0000 0000001   0.0000 343.6364 14.80000000    00
iridium-75 44
1 00045U 00000ABC 00001.00000000  .00000000  00000-0  00000+0 0    02
2 00045  86.4000 240.0000 0000001   0.0000   0.0000 14.80000000    09
iridium-75 45
1 00046U 00000ABC 00001.00000000  .00000000  00000-0  00000+0 0    03
2 00046  86.4000 240.0000 0000001   0.0000  32.7273 14.80000000    04
iridium-75 46
1 00047U 00000ABC 00001.00000000  .00000000  00000-0  00000+0 0    04
2 00047  86.4000 240.0000 0000001   0.0000  65.4545 14.80000000    00
iridium-75 47
1 00048U 00000ABC 00001.00000000  .00000000  00000-0  00000+0 0    05
2 00048  86.4000 240.0000 0000001   0.0000  98.1818 14.80000000    07
iridium-75 48
1 00049U 00000ABC 00001.00000000  .00000000  00000-0  00000+0 0    06
2 00049  86.4000 240.0000 0000001   0.0000 130.9091 14.80000000    06
iridium-75 49
1 00050U 00000ABC 00001.00000000  .00000000  00000-0  00000+0 0    08
2 00050  86.4000 240.0000 0000001   0.0000 163.6364 14.80000000    04
iridium-75 50
1 00051U 00000ABC 00001.00000000  .00000000  00000-0  00000+0 0    09
2 00051  86.4000 240.0000 0000001   0.0000 196.3636 14.80000000    00
iridium-75 51
1 00052U 00000ABC 00001.00000000  .00000000  00000-0  00000+0 0    00
2 00052  86.4000 240.0000 0000001   0.0000 229.0909 14.80000000    08
iridium-75 52
1 00053U 00000ABC 00001.00000000  .00000000  00000-0  00000+0 0    01
2 00053  86.4000 240.0000 0000001   0.0000 261.8182 14.80000000    06
iridium-75 53
1 00054U 00000ABC 00001.00000000  .00000000  00000-0  00000+0 0    02
2 00054  86.4000 240.0000 0000001   0.0000 294.5455 14.80000000    03
iridium-75 54
1 00055U 00000ABC 00001.00000000  .00000000  00000-0  00000+0 0    03
2 00055  86.4000 240.0000 0000001   0.0000 327.2727 14.80000000    00
iridium-75 55
1 00056U 00000ABC 00001.00000000  .00000000  00000-0  00000+0 0    04
2 00056  86.4000 300.0000 0000001   0.0000  16.3636 14.80000000    03
iridium-75 56
1 00057U 00000ABC 00001.00000000  .00000000  00000-0  00000+0 0    05
2 00057  86.4000 300.0000 0000001   0.0000  49.0909 14.80000000    00
iridium-75 57
1 00058U 00000ABC 00001.00000000  .00000000  00000-0  00000+0 0    06
2 00058  86.4000 300.0000 0000001   0.0000  81.8182 14.80000000    08
iridium-75 58
1 00059U 00000ABC 00001.00000000  .00000000  00000-0  00000+0 0    07
2 00059  86.4000 300.0000 0000001   0.0000 114.5455 14.80000000    06
iridium-75 59
1 00060U 00000ABC 00001.00000000  .00000000  00000-0  00000+0 0    09
2 00060  86.4000 300.0000 0000001   0.0000 147.2727 14.80000000    03
iridium-75 60
1 00061U 00000ABC 00001.00000000  .00000000  00000-0  00000+0 0    00
2 00061  86.4000 300.0000 0000001   0.0000 180.0000 14.80000000    03
iridium-75 61
1 00062U 00000ABC 00001.00000000  .00000000  00000-0  00000+0 0    01
2 00062  86.4000 300.0000 0000001   0.0000 212.7273 14.80000000    09
iridium-75 62
1 00063U 00000ABC 00001.00000000  .00000000  00000-0  00000+0 0    02
2 00063  86.4000 300.0000 0000001   0.0000 245.4545 14.80000000    05
iridium-75 63
1 00064U 00000ABC 00001.00000000  .00000000  00000-0  00000+0 0    03
2 00064  86.4000 300.0000 0000001   0.0000 278.1818 14.80000000    02
iridium-75 64
1 00065U 00000ABC 00001.00000000  .00000000  00000-0  00000+0 0    04
2 00065  86.4000 300.0000 0000001   0.0000 310.9091 14.80000000    01
iridium-75 65
1 00066U 00000ABC 00001.00000000  .00000000  00000-0  00000+0 0    05
2 00066  86.4000 300.0000 0000001   0.0000 343.6364 14.80000000    08
